[
    {
        "CCSDS_OMM_VERS": "3.0",
        "COMMENT": "GENERATED VIA SPACE-TRACK.ORG API",
        "CREATION_DATE": "2025-03-01T17:52:32",
        "ORIGINATOR": "18 SPCS",
        "OBJECT_NAME": "BEIDOU 3M4",
        "OBJECT_ID": "2018-003B",
        "CENTER_NAME": "EARTH",
        "REF_FRAME": "TEME",
        "TIME_SYSTEM": "UTC",
        "MEAN_ELEMENT_THEORY": "SGP4",
        "EPOCH": "2025-03-01T05:45:46.668672",
        "MEAN_MOTION": "1.86230763",
        "ECCENTRICITY": "0.00034720",
        "INCLINATION": "54.7300",
        "RA_OF_ASC_NODE": "318.7383",
        "ARG_OF_PERICENTER": "285.8667",
        "MEAN_ANOMALY": "74.1526",
        "EPHEMERIS_TYPE": "0",
        "CLASSIFICATION_TYPE": "U",
        "NORAD_CAT_ID": "43108",
        "ELEMENT_SET_NO": "999",
        "REV_AT_EPOCH": "4855",
        "BSTAR": "0.00000000000000",
        "MEAN_MOTION_DOT": "-0.00000051",
        "MEAN_MOTION_DDOT": "0.0000000000000",
        "SEMIMAJOR_AXIS": "27906.212",
        "PERIOD": "773.234",
        "APOAPSIS": "21537.766",
        "PERIAPSIS": "21518.388",
        "OBJECT_TYPE": "PAYLOAD",
        "RCS_SIZE": "LARGE",
        "COUNTRY_CODE": "PRC",
        "LAUNCH_DATE": "2018-01-11",
        "SITE": "XSC",
        "DECAY_DATE": null,
        "FILE": "4656182",
        "GP_ID": "282004034",
        "TLE_LINE0": "0 BEIDOU 3M4",
        "TLE_LINE1": "1 43108U 18003B   25060.24012348 -.00000051  00000-0  00000-0 0  9992",
        "TLE_LINE2": "2 43108  54.7300 318.7383 0003472 285.8667  74.1526  1.86230763 48551"
    }
]